KUIPER-00176            
1 65788U 25217AC  25324.75002315 -.00497988  00000+0 -21689-1 0  9993
2 65788  51.8760 171.1618 0003288 247.4675 182.4505 15.23963525  5285
KUIPER-00101            
1 65947U 25228A   25324.75002315 -.00720142  00000+0 -34598-1 0  9996
2 65947  51.8876 127.3436 0004795 281.2307 245.9176 15.20749234  4535
KUIPER-00113            
1 65948U 25228B   25324.75002315  .00012064  00000+0  39574-3 0  9993
2 65948  51.8803 126.4886 0005997 267.6598 292.5600 15.32000577  5590
KUIPER-00117            
1 65949U 25228C   25324.75002315 -.01006736  00000+0 -42162-1 0  9991
2 65949  51.8797 126.7993 0008898 277.5010 119.8850 15.25743557  5410
KUIPER-00121            
1 65950U 25228D   25324.46220362  .00039098  00000+0  11350-2 0  9995
2 65950  51.8774 127.9937 0004968 290.2692  69.7759 15.35111934  6994
KUIPER-00122            
1 65951U 25228E   25324.75002315 -.00889545  00000+0 -50453-1 0  9992
2 65951  51.8838 128.1584 0006068 304.3384 191.8525 15.15127113  5660
KUIPER-00123            
1 65952U 25228F   25324.75002315 -.00778569  00000+0 -45310-1 0  9992
2 65952  51.8878 128.1735 0005817 292.3271 129.9249 15.14303560  3951
KUIPER-00124            
1 65953U 25228G   25324.46780811  .00042180  00000+0  12428-2 0  9991
2 65953  51.8760 128.0261 0003957 304.7330  55.3282 15.34612866  6992
